$$SOE
2460147.500000000, A.D. 2023-Jul-22 00:00:00.0000, -6.451974919514099E+08, -3.202358837000434E+08, -1.184515491154596E+08,
2460154.500000000, A.D. 2023-Jul-29 00:00:00.0000, -6.425403901754411E+08, -3.268569556152307E+08, -1.183739906130070E+08,
2460161.500000000, A.D. 2023-Aug-05 00:00:00.0000, -6.398033510976043E+08, -3.334373484325834E+08, -1.182816900941487E+08,
2460168.500000000, A.D. 2023-Aug-12 00:00:00.0000, -6.369868996684576E+08, -3.399763393304415E+08, -1.181746925071736E+08,
2460175.500000000, A.D. 2023-Aug-19 00:00:00.0000, -6.340915612318901E+08, -3.464732107954471E+08, -1.180530431913028E+08,
2460182.500000000, A.D. 2023-Aug-26 00:00:00.0000, -6.311178615532779E+08, -3.529272503856704E+08, -1.179167878676490E+08,
2460189.500000000, A.D. 2023-Sep-02 00:00:00.0000, -6.280663268731751E+08, -3.593377505676072E+08, -1.177659726353814E+08,
2460196.500000000, A.D. 2023-Sep-09 00:00:00.0000, -6.249374839498619E+08, -3.657040086681978E+08, -1.176006439797719E+08,
2460203.500000000, A.D. 2023-Sep-16 00:00:00.0000, -6.217318599222749E+08, -3.720253269998056E+08, -1.174208488122351E+08,
2460210.500000000, A.D. 2023-Sep-23 00:00:00.0000, -6.184499815768465E+08, -3.783010128712906E+08, -1.172266345570237E+08,
2460217.500000000, A.D. 2023-Sep-30 00:00:00.0000, -6.150923743576871E+08, -3.845303772943419E+08, -1.170180491559803E+08,
2460224.500000000, A.D. 2023-Oct-07 00:00:00.0000, -6.116595634736425E+08, -3.907127329278660E+08, -1.167951408196484E+08,
2460231.500000000, A.D. 2023-Oct-14 00:00:00.0000, -6.081520760623170E+08, -3.968473945737506E+08, -1.165579578907651E+08,
2460238.500000000, A.D. 2023-Oct-21 00:00:00.0000, -6.045704411826864E+08, -4.029336806213432E+08, -1.163065489851757E+08,
2460245.500000000, A.D. 2023-Oct-28 00:00:00.0000, -6.009151890606880E+08, -4.089709131803263E+08, -1.160409630945512E+08,
2460252.500000000, A.D. 2023-Nov-04 00:00:00.0000, -5.971868508376335E+08, -4.149584176722288E+08, -1.157612495988901E+08,
2460259.500000000, A.D. 2023-Nov-11 00:00:00.0000, -5.933859586437473E+08, -4.208955224804603E+08, -1.154674582538329E+08,
2460266.500000000, A.D. 2023-Nov-18 00:00:00.0000, -5.895130457773060E+08, -4.267815587232459E+08, -1.151596391779500E+08,
2460273.500000000, A.D. 2023-Nov-25 00:00:00.0000, -5.855686469166070E+08, -4.326158601269499E+08, -1.148378428446458E+08,
2460280.500000000, A.D. 2023-Dec-02 00:00:00.0000, -5.815532983366491E+08, -4.383977630110094E+08, -1.145021200820268E+08,
2460287.500000000, A.D. 2023-Dec-09 00:00:00.0000, -5.774675380527612E+08, -4.441266064433799E+08, -1.141525220925887E+08,
2460294.500000000, A.D. 2023-Dec-16 00:00:00.0000, -5.733119056037006E+08, -4.498017325539133E+08, -1.137891005180435E+08,
2460301.500000000, A.D. 2023-Dec-23 00:00:00.0000, -5.690869411258123E+08, -4.554224863181597E+08, -1.134119075251091E+08,
2460308.500000000, A.D. 2023-Dec-30 00:00:00.0000, -5.647931850584294E+08, -4.609882137622184E+08, -1.130209957036689E+08,
2460315.500000000, A.D. 2024-Jan-06 00:00:00.0000, -5.604311802528650E+08, -4.664982609493200E+08, -1.126164178078135E+08,
2460322.500000000, A.D. 2024-Jan-13 00:00:00.0000, -5.560014733123761E+08, -4.719519755551509E+08, -1.121982267787215E+08,
2460329.500000000, A.D. 2024-Jan-20 00:00:00.0000, -5.515046139397373E+08, -4.773487079472218E+08, -1.117664759097737E+08,
2460336.500000000, A.D. 2024-Jan-27 00:00:00.0000, -5.469411543210608E+08, -4.826878111157648E+08, -1.113212189146691E+08,
2460343.500000000, A.D. 2024-Feb-03 00:00:00.0000, -5.423116489739351E+08, -4.879686404045879E+08, -1.108625099369010E+08,
2460350.500000000, A.D. 2024-Feb-10 00:00:00.0000, -5.376166547822610E+08, -4.931905533330411E+08, -1.103904035500073E+08,
2460357.500000000, A.D. 2024-Feb-17 00:00:00.0000, -5.328567310789899E+08, -4.983529095013622E+08, -1.099049547608857E+08,
2460364.500000000, A.D. 2024-Feb-24 00:00:00.0000, -5.280324397408988E+08, -5.034550705648317E+08, -1.094062190184832E+08,
2460371.500000000, A.D. 2024-Mar-02 00:00:00.0000, -5.231443452662383E+08, -5.084964003094348E+08, -1.088942522333991E+08,
2460378.500000000, A.D. 2024-Mar-09 00:00:00.0000, -5.181930146966675E+08, -5.134762648919628E+08, -1.083691108264146E+08,
2460385.500000000, A.D. 2024-Mar-16 00:00:00.0000, -5.131790169883717E+08, -5.183940330472807E+08, -1.078308518261663E+08,
2460392.500000000, A.D. 2024-Mar-23 00:00:00.0000, -5.081029219360496E+08, -5.232490751535879E+08, -1.072795329158544E+08,
2460399.500000000, A.D. 2024-Mar-30 00:00:00.0000, -5.029653008908461E+08, -5.280407611822955E+08, -1.067152122255803E+08,
2460406.500000000, A.D. 2024-Apr-06 00:00:00.0000, -4.977667290161059E+08, -5.327684609001509E+08, -1.061379481690169E+08,
2460413.500000000, A.D. 2024-Apr-13 00:00:00.0000, -4.925077855299744E+08, -5.374315454873402E+08, -1.055477995818284E+08,
2460420.500000000, A.D. 2024-Apr-20 00:00:00.0000, -4.871890528871745E+08, -5.420293878948287E+08, -1.049448258557441E+08,
2460427.500000000, A.D. 2024-Apr-27 00:00:00.0000, -4.818111164169440E+08, -5.465613625020952E+08, -1.043290869749138E+08,
2460434.500000000, A.D. 2024-May-04 00:00:00.0000, -4.763745643290789E+08, -5.510268447784226E+08, -1.037006435199738E+08,
2460441.500000000, A.D. 2024-May-11 00:00:00.0000, -4.708799878496280E+08, -5.554252110493381E+08, -1.030595566698871E+08,
2460448.500000000, A.D. 2024-May-18 00:00:00.0000, -4.653279814041987E+08, -5.597558383463571E+08, -1.024058882071740E+08,
2460455.500000000, A.D. 2024-May-25 00:00:00.0000, -4.597191428241537E+08, -5.640181043469077E+08, -1.017397005292192E+08,
2460462.500000000, A.D. 2024-Jun-01 00:00:00.0000, -4.540540735158848E+08, -5.682113874615996E+08, -1.010610566756355E+08,
2460469.500000000, A.D. 2024-Jun-08 00:00:00.0000, -4.483333783468574E+08, -5.723350670915558E+08, -1.003700203959278E+08,
2460476.500000000, A.D. 2024-Jun-15 00:00:00.0000, -4.425576648489786E+08, -5.763885235104871E+08, -9.966665624930346E+07,
2460483.500000000, A.D. 2024-Jun-22 00:00:00.0000, -4.367275427445306E+08, -5.803711361960902E+08, -9.895102954811427E+07,
2460490.500000000, A.D. 2024-Jun-29 00:00:00.0000, -4.308436259162005E+08, -5.842822824313600E+08, -9.822320609887004E+07,
2460497.500000000, A.D. 2024-Jul-06 00:00:00.0000, -4.249065341762052E+08, -5.881213386470097E+08, -9.748325218521538E+07,
2460504.500000000, A.D. 2024-Jul-13 00:00:00.0000, -4.189168928855144E+08, -5.918876816810772E+08, -9.673123474079815E+07,
2460511.500000000, A.D. 2024-Jul-20 00:00:00.0000, -4.128753324090505E+08, -5.955806888069760E+08, -9.596722143594173E+07,
2460518.500000000, A.D. 2024-Jul-27 00:00:00.0000, -4.067824880629081E+08, -5.991997374893159E+08, -9.519128069633147E+07,
2460525.500000000, A.D. 2024-Aug-03 00:00:00.0000, -4.006390002806513E+08, -6.027442052423435E+08, -9.440348170945820E+07,
2460532.500000000, A.D. 2024-Aug-10 00:00:00.0000, -3.944455148329311E+08, -6.062134695953480E+08, -9.360389443455184E+07,
2460539.500000000, A.D. 2024-Aug-17 00:00:00.0000, -3.882026830531796E+08, -6.096069081431535E+08, -9.279258961880311E+07,
2460546.500000000, A.D. 2024-Aug-24 00:00:00.0000, -3.819111620416927E+08, -6.129238987037094E+08, -9.196963882452089E+07,
2460553.500000000, A.D. 2024-Aug-31 00:00:00.0000, -3.755716147326572E+08, -6.161638196439459E+08, -9.113511448312154E+07,
2460560.500000000, A.D. 2024-Sep-07 00:00:00.0000, -3.691847094587950E+08, -6.193260502471334E+08, -9.028908999940166E+07,
2460567.500000000, A.D. 2024-Sep-14 00:00:00.0000, -3.627511189284821E+08, -6.224099701254139E+08, -8.943163983272415E+07,
2460574.500000000, A.D. 2024-Sep-21 00:00:00.0000, -3.562715206440874E+08, -6.254149572643993E+08, -8.856283933545178E+07,
2460581.500000000, A.D. 2024-Sep-28 00:00:00.0000, -3.497465992487248E+08, -6.283403879271647E+08, -8.768276456781542E+07,
2460588.500000000, A.D. 2024-Oct-05 00:00:00.0000, -3.431770471315628E+08, -6.311856384161062E+08, -8.679149242586744E+07,
2460595.500000000, A.D. 2024-Oct-12 00:00:00.0000, -3.365635636524126E+08, -6.339500857127750E+08, -8.588910080607513E+07,
2460602.500000000, A.D. 2024-Oct-19 00:00:00.0000, -3.299068547366537E+08, -6.366331072665427E+08, -8.497566866817766E+07,
2460609.500000000, A.D. 2024-Oct-26 00:00:00.0000, -3.232076328729457E+08, -6.392340807334386E+08, -8.405127605889198E+07,
2460616.500000000, A.D. 2024-Nov-02 00:00:00.0000, -3.164666172564068E+08, -6.417523838134460E+08, -8.311600413222012E+07,
2460623.500000000, A.D. 2024-Nov-09 00:00:00.0000, -3.096845339806570E+08, -6.441873941654184E+08, -8.216993517354098E+07,
2460630.500000000, A.D. 2024-Nov-16 00:00:00.0000, -3.028621162527987E+08, -6.465384893991975E+08, -8.121315262981400E+07,
2460637.500000000, A.D. 2024-Nov-23 00:00:00.0000, -2.960001045843923E+08, -6.488050471946743E+08, -8.024574115423632E+07,
2460644.500000000, A.D. 2024-Nov-30 00:00:00.0000, -2.890992467501359E+08, -6.509864455902860E+08, -7.926778668786734E+07,
2460651.500000000, A.D. 2024-Dec-07 00:00:00.0000, -2.821602970948325E+08, -6.530820630201918E+08, -7.827937658222046E+07,
2460658.500000000, A.D. 2024-Dec-14 00:00:00.0000, -2.751840158772901E+08, -6.550912768759570E+08, -7.728059959949303E+07,
2460665.500000000, A.D. 2024-Dec-21 00:00:00.0000, -2.681711709696005E+08, -6.570134618332583E+08, -7.627154567899248E+07,
2460672.500000000, A.D. 2024-Dec-28 00:00:00.0000, -2.611225399391258E+08, -6.588479909109414E+08, -7.525230589301881E+07,
2460679.500000000, A.D. 2025-Jan-04 00:00:00.0000, -2.540389099159707E+08, -6.605942368865778E+08, -7.422297263610351E+07,
2460686.500000000, A.D. 2025-Jan-11 00:00:00.0000, -2.469210770673320E+08, -6.622515724088843E+08, -7.318363974470681E+07,
2460693.500000000, A.D. 2025-Jan-18 00:00:00.0000, -2.397698465956786E+08, -6.638193697258250E+08, -7.213440253810176E+07,
2460700.500000000, A.D. 2025-Jan-25 00:00:00.0000, -2.325860330171794E+08, -6.652970005029566E+08, -7.107535784129059E+07,
2460707.500000000, A.D. 2025-Feb-01 00:00:00.0000, -2.253704605307464E+08, -6.666838357622315E+08, -7.000660400954556E+07,
$$EOE